{"type": "FeatureCollection", "name": "world-card-game-60", "features": [{"type": "Feature", "properties": {"ISO_A3": "TZA", "NAME": "Tanzania", "NAME_LONG": "Tanzania", "ADMIN": "Tanzania", "CONTINENT": "Africa"}, "geometry": {"type": "Polygon", "coordinates": [[[40.31659, -1.549999], [40.12119, -1.277681], [39.93309, -0.982999], [39.60196, -0.389999], [39.20222, -0.429999], [38.74054, -0.883999], [38.79977, -1.307], [38.738514, -1.757], [38.982, -2.032], [39.2268, -2.104], [39.20305, -2.442], [39.604, -3.037], [40.087, -3.507], [40.503, -4.403], [40.955, -4.679], [41.133, -5.67], [41.315, -5.945], [41.192, -6.219], [41.193, -6.21], [41.257, -5.945], [41.133, -5.67], [40.955, -4.679], [40.503, -4.403], [40.087, -3.507], [39.604, -3.037], [39.20305, -2.442], [39.2268, -2.104], [38.982, -2.032], [38.738514, -1.757], [38.79977, -1.307], [38.74054, -0.883999], [39.20222, -0.429999], [39.60196, -0.389999], [39.93309, -0.982999], [40.12119, -1.277681], [40.31659, -1.549999]]]}}, {"type": "Feature", "properties": {"ISO_A3": "DZA", "NAME": "Algeria", "NAME_LONG": "Algeria", "ADMIN": "Algeria", "CONTINENT": "Africa"}, "geometry": {"type": "Polygon", "coordinates": [[[11.999506, 23.471668], [8.572893, 21.565661], [5.677566, 19.601207], [4.267419, 19.155265], [3.158133, 19.057364], [3.146661, 19.693579], [2.683589, 19.85623], [2.060991, 20.142233], [1.823228, 20.610809], [-1.550055, 22.792666], [-4.923337, 24.974574], [-8.6844, 27.395744], [-8.66559, 27.656426], [-8.817828, 27.656426], [-8.794884, 27.120696], [-9.413037, 27.08846], [-9.735343, 26.860945], [-10.189424, 26.860945], [-10.551263, 26.990808], [-11.392555, 26.883424], [-11.71822, 26.104092], [-12.030975, 26.030866], [-12.500962, 24.770116], [-12.874222, 23.284832], [-12.929102, 21.327071], [-13.118754, 20.774828], [-12.911046, 20.109209], [-12.17075, 19.82027], [-11.738701, 19.531, [-11.248], [-11.0, 19.0], [-10.5, 19.0], [-10.0, 19.0], [-9.0, 19.0], [-8.0, 19.0], [-7.0, 19.0], [-6.0, 19.0], [-5.0, 19.0], [-4.0, 19.0], [-3.0, 19.0], [-2.0, 19.0], [-1.0, 19.0], [0.0, 19.0], [1.0, 19.0], [2.0, 19.0], [3.0, 19.0], [4.0, 19.0], [5.0, 19.0], [6.0, 19.0], [7.0, 19.0], [8.0, 19.0], [9.0, 19.0], [10.0, 19.0], [11.0, 19.0], [11.999506, 23.471668]]]}}, {"type": "Feature", "properties": {"ISO_A3": "WSM", "NAME": "Samoa", "NAME_LONG": "Samoa", "ADMIN": "Samoa", "CONTINENT": "Oceania"}, "geometry": {"type": "Polygon", "coordinates": [[[-172.9, -14.5], [-171.2, -14.5], [-171.2, -13.3], [-172.9, -13.3], [-172.9, -14.5]]]}}]}